{
    "links": {
        "self": "http://www.neowsapp.com/rest/v1/neo/3781042?api_key=iIulBulltgU6a56xZRHN4H3l9WmuAYTsLGpBGhQ2"
    },
    "id": "3781042",
    "neo_reference_id": "3781042",
    "name": "(2017 QF18)",
    "designation": "2017 QF18",
    "nasa_jpl_url": "http://ssd.jpl.nasa.gov/sbdb.cgi?sstr=3781042",
    "absolute_magnitude_h": 23.6,
    "estimated_diameter": {
        "kilometers": {
            "estimated_diameter_min": 0.0506471459,
            "estimated_diameter_max": 0.1132504611
        },
        "meters": {
            "estimated_diameter_min": 50.6471458835,
            "estimated_diameter_max": 113.2504610618
        },
        "miles": {
            "estimated_diameter_min": 0.0314706677,
            "estimated_diameter_max": 0.0703705522
        },
        "feet": {
            "estimated_diameter_min": 166.1651821003,
            "estimated_diameter_max": 371.5566426699
        }
    },
    "is_potentially_hazardous_asteroid": false,
    "close_approach_data": [
        {
            "close_approach_date": "2017-08-17",
            "close_approach_date_full": "2017-Aug-17 04:20",
            "epoch_date_close_approach": 1502943600000,
            "relative_velocity": {
                "kilometers_per_second": "11.4199955184",
                "kilometers_per_hour": "41111.9838663354",
                "miles_per_hour": "25545.3879751682"
            },
            "miss_distance": {
                "astronomical": "0.0742027372",
                "lunar": "28.8648647708",
                "kilometers": "11100571.433289764",
                "miles": "6897575.2438321832"
            },
            "orbiting_body": "Earth"
        }
    ],
    "orbital_data": {
        "orbit_id": "3",
        "orbit_determination_date": "2017-09-20 06:19:08",
        "first_observation_date": "2017-08-24",
        "last_observation_date": "2017-08-27",
        "data_arc_in_days": 3,
        "observations_used": 14,
        "orbit_uncertainty": "9",
        "minimum_orbit_intersection": ".0367336",
        "jupiter_tisserand_invariant": "4.424",
        "epoch_osculation": "2457990.5",
        "eccentricity": ".3487014236350761",
        "semi_major_axis": "1.498309080369184",
        "inclination": "19.05987046007996",
        "ascending_node_longitude": "317.1289679493672",
        "orbital_period": "669.8854487719474",
        "perihelion_distance": ".9758465709990881",
        "perihelion_argument": "45.09182928809405",
        "aphelion_distance": "2.02077158973928",
        "perihelion_time": "2458019.131028727605",
        "mean_anomaly": "344.6135330139904",
        "mean_motion": ".5374053140875981",
        "equinox": "J2000",
        "orbit_class": {
            "orbit_class_type": "APO",
            "orbit_class_description": "Near-Earth asteroid orbits which cross the Earth’s orbit similar to that of 1862 Apollo",
            "orbit_class_range": "a (semi-major axis) > 1.0 AU; q (perihelion) < 1.017 AU"
        }
    },
    "is_sentry_object": false
}